FENGYUN 1C DEB          
1 31979U 99025CPG 17344.24662681  .00000396  00000-0  47223-3 0  9997
2 31979  99.3361 157.8038 0299759 192.1601 167.2188 13.55562673181742
